start=new Date('2022-09-11T00:00:00.000Z').valueOf();
sats=[{"REV_AT_EPOCH":"13279","TLE_LINE1":"1 45535U 20025E   22253.81337253 -.00000106  00000-0  11775-4 0  9990","CENTER_NAME":"EARTH","BSTAR":"0.00001177500000","PERIOD":"95.592","NORAD_CAT_ID":"45535","MEAN_MOTION":"15.06402351","COUNTRY_CODE":"US","MEAN_ANOMALY":"256.9386","OBJECT_NAME":"STARLINK-1350","RA_OF_ASC_NODE":"74.2473","FILE":"3567798","PERIAPSIS":"546.145","EPOCH":"2022-09-10T19:31:15.386592","SEMIMAJOR_AXIS":"6925.341","ECCENTRICITY":"0.00015330","RCS_SIZE":"LARGE","MEAN_ELEMENT_THEORY":"SGP4","EPHEMERIS_TYPE":"0","MEAN_MOTION_DOT":"-0.00000106","INCLINATION":"53.0570","OBJECT_TYPE":"PAYLOAD","DECAY_DATE":null,"ELEMENT_SET_NO":"999","APOAPSIS":"548.268","CLASSIFICATION_TYPE":"U","SITE":"AFETR","OBJECT_ID":"2020-025E","REF_FRAME":"TEME","TLE_LINE2":"2 45535  53.0570  74.2473 0001533 103.1774 256.9386 15.06402351132794","TIME_SYSTEM":"UTC","MEAN_MOTION_DDOT":"0.0000000000000","ARG_OF_PERICENTER":"103.1774","GP_ID":"212267312","LAUNCH_DATE":"2020-04-22"},{"NORAD_CAT_ID":"45536","CENTER_NAME":"EARTH","REV_AT_EPOCH":"13278","TLE_LINE1":"1 45536U 20025F   22253.81706580  .00000649  00000-0  62512-4 0  9990","BSTAR":"0.00006251200000","PERIOD":"95.593","MEAN_MOTION":"15.06387848","OBJECT_NAME":"STARLINK-1352","RA_OF_ASC_NODE":"74.2367","MEAN_ANOMALY":"273.0515","COUNTRY_CODE":"US","SEMIMAJOR_AXIS":"6925.386","EPOCH":"2022-09-10T19:36:34.485120","FILE":"3567798","PERIAPSIS":"546.133","EPHEMERIS_TYPE":"0","ECCENTRICITY":"0.00016140","MEAN_ELEMENT_THEORY":"SGP4","RCS_SIZE":"LARGE","OBJECT_TYPE":"PAYLOAD","INCLINATION":"53.0565","MEAN_MOTION_DOT":"0.00000649","APOAPSIS":"548.369","ELEMENT_SET_NO":"999","DECAY_DATE":null,"TLE_LINE2":"2 45536  53.0565  74.2367 0001614  87.0658 273.0515 15.06387848132788","TIME_SYSTEM":"UTC","REF_FRAME":"TEME","CLASSIFICATION_TYPE":"U","SITE":"AFETR","OBJECT_ID":"2020-025F","GP_ID":"212267562","ARG_OF_PERICENTER":"87.0658","MEAN_MOTION_DDOT":"0.0000000000000","LAUNCH_DATE":"2020-04-22"},{"FILE":"3567798","PERIAPSIS":"480.416","EPOCH":"2022-09-10T13:51:52.446240","SEMIMAJOR_AXIS":"6860.223","ECCENTRICITY":"0.00024380","MEAN_ELEMENT_THEORY":"SGP4","RCS_SIZE":"LARGE","EPHEMERIS_TYPE":"0","TLE_LINE1":"1 45537U 20025G   22253.57769035  .00040988  00000-0  14894-2 0  9996","REV_AT_EPOCH":"13353","CENTER_NAME":"EARTH","BSTAR":"0.00148940000000","PERIOD":"94.247","NORAD_CAT_ID":"45537","MEAN_MOTION":"15.27901549","COUNTRY_CODE":"US","MEAN_ANOMALY":"7.0147","RA_OF_ASC_NODE":"16.9952","OBJECT_NAME":"STARLINK-1353","CLASSIFICATION_TYPE":"U","OBJECT_ID":"2020-025G","SITE":"AFETR","REF_FRAME":"TEME","TLE_LINE2":"2 45537  52.9766  16.9952 0002438 353.0816   7.0147 15.27901549133533","TIME_SYSTEM":"UTC","MEAN_MOTION_DDOT":"0.0000000000000","ARG_OF_PERICENTER":"353.0816","GP_ID":"212266312","LAUNCH_DATE":"2020-04-22","MEAN_MOTION_DOT":"0.00040988","INCLINATION":"52.9766","OBJECT_TYPE":"PAYLOAD","DECAY_DATE":null,"ELEMENT_SET_NO":"999","APOAPSIS":"483.761"},{"PERIAPSIS":"546.276","FILE":"3567798","SEMIMAJOR_AXIS":"6925.343","EPOCH":"2022-09-10T18:38:11.475744","MEAN_ELEMENT_THEORY":"SGP4","RCS_SIZE":"LARGE","ECCENTRICITY":"0.00013460","EPHEMERIS_TYPE":"0","PERIOD":"95.592","BSTAR":"0.00003634400000","CENTER_NAME":"EARTH","TLE_LINE1":"1 45538U 20025H   22253.77652171  .00000260  00000-0  36344-4 0  9996","REV_AT_EPOCH":"13278","NORAD_CAT_ID":"45538","RA_OF_ASC_NODE":"74.4237","OBJECT_NAME":"STARLINK-1362","MEAN_ANOMALY":"284.7930","COUNTRY_CODE":"US","MEAN_MOTION":"15.06401858","SITE":"AFETR","OBJECT_ID":"2020-025H","CLASSIFICATION_TYPE":"U","TLE_LINE2":"2 45538  53.0559  74.4237 0001346  75.3208 284.7930 15.06401858132782","TIME_SYSTEM":"UTC","REF_FRAME":"TEME","LAUNCH_DATE":"2020-04-22","ARG_OF_PERICENTER":"75.3208","GP_ID":"212266562","MEAN_MOTION_DDOT":"0.0000000000000","INCLINATION":"53.0559","MEAN_MOTION_DOT":"0.00000260","OBJECT_TYPE":"PAYLOAD","DECAY_DATE":null,"APOAPSIS":"548.140","ELEMENT_SET_NO":"999"},{"ELEMENT_SET_NO":"999","APOAPSIS":"548.211","DECAY_DATE":null,"OBJECT_TYPE":"PAYLOAD","MEAN_MOTION_DOT":"0.00000224","INCLINATION":"53.0563","MEAN_MOTION_DDOT":"0.0000000000000","ARG_OF_PERICENTER":"85.9174","GP_ID":"212266813","LAUNCH_DATE":"2020-04-22","REF_FRAME":"TEME","TIME_SYSTEM":"UTC","TLE_LINE2":"2 45540  53.0563  74.2287 0001466  85.9174 274.1982 15.06405955132787","CLASSIFICATION_TYPE":"U","OBJECT_ID":"2020-025K","SITE":"AFETR","MEAN_MOTION":"15.06405955","MEAN_ANOMALY":"274.1982","COUNTRY_CODE":"US","OBJECT_NAME":"STARLINK-1368","RA_OF_ASC_NODE":"74.2287","NORAD_CAT_ID":"45540","TLE_LINE1":"1 45540U 20025K   22253.82074615  .00000224  00000-0  33923-4 0  9996","REV_AT_EPOCH":"13278","CENTER_NAME":"EARTH","BSTAR":"0.00003392300000","PERIOD":"95.592","EPHEMERIS_TYPE":"0","ECCENTRICITY":"0.00014660","MEAN_ELEMENT_THEORY":"SGP4","RCS_SIZE":"LARGE","EPOCH":"2022-09-10T19:41:52.467360","SEMIMAJOR_AXIS":"6925.330","FILE":"3567798","PERIAPSIS":"546.180"},{"MEAN_MOTION":"15.06399041","MEAN_ANOMALY":"272.6460","COUNTRY_CODE":"US","RA_OF_ASC_NODE":"74.2017","OBJECT_NAME":"STARLINK-1369","REV_AT_EPOCH":"13278","TLE_LINE1":"1 45541U 20025L   22253.82443142 -.00000327  00000-0 -30856-5 0  9991","CENTER_NAME":"EARTH","BSTAR":"-0.00000308560000","PERIOD":"95.592","NORAD_CAT_ID":"45541","ECCENTRICITY":"0.00013020","MEAN_ELEMENT_THEORY":"SGP4","RCS_SIZE":"LARGE","EPHEMERIS_TYPE":"0","FILE":"3567798","PERIAPSIS":"546.315","EPOCH":"2022-09-10T19:47:10.874688","SEMIMAJOR_AXIS":"6925.351","DECAY_DATE":null,"ELEMENT_SET_NO":"999","APOAPSIS":"548.118","MEAN_MOTION_DOT":"-0.00000327","INCLINATION":"53.0567","OBJECT_TYPE":"PAYLOAD","MEAN_MOTION_DDOT":"0.0000000000000","GP_ID":"212267064","ARG_OF_PERICENTER":"87.4678","LAUNCH_DATE":"2020-04-22","CLASSIFICATION_TYPE":"U","SITE":"AFETR","OBJECT_ID":"2020-025L","REF_FRAME":"TEME","TIME_SYSTEM":"UTC","TLE_LINE2":"2 45541  53.0567  74.2017 0001302  87.4678 272.6460 15.06399041132780"},{"ECCENTRICITY":"0.00013570","MEAN_ELEMENT_THEORY":"SGP4","RCS_SIZE":"LARGE","EPHEMERIS_TYPE":"0","FILE":"3567798","PERIAPSIS":"546.279","EPOCH":"2022-09-10T18:59:25.609632","SEMIMAJOR_AXIS":"6925.354","MEAN_MOTION":"15.06398202","COUNTRY_CODE":"US","MEAN_ANOMALY":"275.8014","OBJECT_NAME":"STARLINK-1371","RA_OF_ASC_NODE":"74.3638","TLE_LINE1":"1 45542U 20025M   22253.79126863 -.00000391  00000-0 -73473-5 0  9999","REV_AT_EPOCH":"13278","CENTER_NAME":"EARTH","PERIOD":"95.592","BSTAR":"-0.00000734730000","NORAD_CAT_ID":"45542","MEAN_MOTION_DDOT":"0.0000000000000","GP_ID":"212265813","ARG_OF_PERICENTER":"84.3130","LAUNCH_DATE":"2020-04-22","CLASSIFICATION_TYPE":"U","SITE":"AFETR","OBJECT_ID":"2020-025M","REF_FRAME":"TEME","TLE_LINE2":"2 45542  53.0560  74.3638 0001357  84.3130 275.8014 15.06398202132781","TIME_SYSTEM":"UTC","DECAY_DATE":null,"ELEMENT_SET_NO":"999","APOAPSIS":"548.159","MEAN_MOTION_DOT":"-0.00000391","INCLINATION":"53.0560","OBJECT_TYPE":"PAYLOAD"},{"MEAN_MOTION_DDOT":"0.0000000000000","ARG_OF_PERICENTER":"83.3436","GP_ID":"212266063","LAUNCH_DATE":"2020-04-22","CLASSIFICATION_TYPE":"U","SITE":"AFETR","OBJECT_ID":"2020-025N","REF_FRAME":"TEME","TLE_LINE2":"2 45543  53.0547  74.1889 0001324  83.3436 276.7704 15.06395872131881","TIME_SYSTEM":"UTC","DECAY_DATE":null,"ELEMENT_SET_NO":"999","APOAPSIS":"548.143","MEAN_MOTION_DOT":"0.00000855","INCLINATION":"53.0547","OBJECT_TYPE":"PAYLOAD","ECCENTRICITY":"0.00013240","MEAN_ELEMENT_THEORY":"SGP4","RCS_SIZE":"LARGE","EPHEMERIS_TYPE":"0","FILE":"3567798","PERIAPSIS":"546.309","EPOCH":"2022-09-10T19:52:29.550720","SEMIMAJOR_AXIS":"6925.361","MEAN_MOTION":"15.06395872","MEAN_ANOMALY":"276.7704","COUNTRY_CODE":"US","RA_OF_ASC_NODE":"74.1889","OBJECT_NAME":"STARLINK-1372","REV_AT_EPOCH":"13188","TLE_LINE1":"1 45543U 20025N   22253.82811980  .00000855  00000-0  76268-4 0  9992","CENTER_NAME":"EARTH","PERIOD":"95.592","BSTAR":"0.00007626800000","NORAD_CAT_ID":"45543"},{"EPHEMERIS_TYPE":"0","ECCENTRICITY":"0.00012930","MEAN_ELEMENT_THEORY":"SGP4","RCS_SIZE":"LARGE","SEMIMAJOR_AXIS":"6925.345","EPOCH":"2022-09-10T18:43:29.908992","FILE":"3567798","PERIAPSIS":"546.314","MEAN_MOTION":"15.06401240","RA_OF_ASC_NODE":"74.4088","OBJECT_NAME":"STARLINK-1373","MEAN_ANOMALY":"254.5553","COUNTRY_CODE":"US","NORAD_CAT_ID":"45544","CENTER_NAME":"EARTH","REV_AT_EPOCH":"13278","TLE_LINE1":"1 45544U 20025P   22253.78020728  .00000193  00000-0  31827-4 0  9997","BSTAR":"0.00003182700000","PERIOD":"95.592","GP_ID":"212267313","ARG_OF_PERICENTER":"105.5579","MEAN_MOTION_DDOT":"0.0000000000000","LAUNCH_DATE":"2020-04-22","TLE_LINE2":"2 45544  53.0553  74.4088 0001293 105.5579 254.5553 15.06401240132786","TIME_SYSTEM":"UTC","REF_FRAME":"TEME","CLASSIFICATION_TYPE":"U","OBJECT_ID":"2020-025P","SITE":"AFETR","APOAPSIS":"548.105","ELEMENT_SET_NO":"999","DECAY_DATE":null,"OBJECT_TYPE":"PAYLOAD","INCLINATION":"53.0553","MEAN_MOTION_DOT":"0.00000193"},{"CLASSIFICATION_TYPE":"U","SITE":"AFETR","OBJECT_ID":"2020-025Q","REF_FRAME":"TEME","TLE_LINE2":"2 45545  53.0563  74.3149 0001401  76.1149 283.9995 15.06404291132765","TIME_SYSTEM":"UTC","MEAN_MOTION_DDOT":"0.0000000000000","ARG_OF_PERICENTER":"76.1149","GP_ID":"212267563","LAUNCH_DATE":"2020-04-22","MEAN_MOTION_DOT":"0.00002080","INCLINATION":"53.0563","OBJECT_TYPE":"PAYLOAD","DECAY_DATE":null,"ELEMENT_SET_NO":"999","APOAPSIS":"548.171","FILE":"3567798","PERIAPSIS":"546.230","EPOCH":"2022-09-10T19:10:00.909696","SEMIMAJOR_AXIS":"6925.335","ECCENTRICITY":"0.00014010","MEAN_ELEMENT_THEORY":"SGP4","RCS_SIZE":"LARGE","EPHEMERIS_TYPE":"0","REV_AT_EPOCH":"13276","TLE_LINE1":"1 45545U 20025Q   22253.79862164  .00002080  00000-0  15845-3 0  9995","CENTER_NAME":"EARTH","PERIOD":"95.592","BSTAR":"0.00015845000000","NORAD_CAT_ID":"45545","MEAN_MOTION":"15.06404291","COUNTRY_CODE":"US","MEAN_ANOMALY":"283.9995","OBJECT_NAME":"STARLINK-1374","RA_OF_ASC_NODE":"74.3149"}];
